#aV2021 12 31  0  0  0.00000000     288 DD+AD WGS84 FIT  NGA
## 2190 432000.00000000   300.00000000 59579 0.0000000000000
+   32     1  2  3  4  5  6  7  8  9 10 11 12 13 14 15 16 17
+         18 19 20 21 22 23 24 25 26 27 28 29 30 31 32  0  0
+          0  0  0  0  0  0  0  0  0  0  0  0  0  0  0  0  0
+          0  0  0  0  0  0  0  0  0  0  0  0  0  0  0  0  0
+          0  0  0  0  0  0  0  0  0  0  0  0  0  0  0  0  0
++         2  2  2  2  2  2  2  2  2  2  2  2  2  2  2  2  2
++         2  2  2  2  2  2  2  2  2  2  2  2  2  2  2  0  0
++         0  0  0  0  0  0  0  0  0  0  0  0  0  0  0  0  0
++         0  0  0  0  0  0  0  0  0  0  0  0  0  0  0  0  0
++         0  0  0  0  0  0  0  0  0  0  0  0  0  0  0  0  0
%c cc cc ccc ccc cccc cccc cccc cccc ccccc ccccc ccccc ccccc
%c cc cc ccc ccc cccc cccc cccc cccc ccccc ccccc ccccc ccccc
%f  0.0000000  0.000000000  0.00000000000  0.000000000000000
%f  0.0000000  0.000000000  0.00000000000  0.000000000000000
%i    0    0    0    0      0      0      0      0         0
%i    0    0    0    0      0      0      0      0         0
/*      NGA, ST. LOUIS,MO.                                  
/*   EPHEMERIS COMPUTED FROM 2 DAYS OF DATA                 
/*   EPOCHA v7 SMOOTHER                                     
/*   G2139 IERS2010 SATIGS SATAPC                           
*  2021 12 31  1 35  0.00000000
P  1  13055.524027 -12429.788854  19104.912177    469.932704                    
V  1    410.440191  24932.997352  16044.929882     -0.099900                    
P  2 -13897.306537 -10872.933961 -19157.426023   -647.306098                    
V  2     -3.809228 -25827.835121  14280.626656     -0.010983                    
P  3  23074.391698 -13035.756017   -461.372705    -60.033364                    
V  3   1628.520523   2003.381955  32069.950547     -0.137431                    
P  4  17368.668813  -4942.083784 -19501.902447   -197.031496                    
V  4  20049.753818  14547.443712  14092.049961      0.015252                    
P  5 -22672.199849   2249.982473 -13937.164430    -66.229368                    
V  5  13817.377066 -10725.837412 -24347.441434     -0.013123                    
P  6  -5887.540500 -23915.658627  -9785.515063    157.228574                    
V  6   2190.150861 -12464.900865  29002.749747      0.105268                    
P  7   5816.004800 -24511.568666  -7199.363266    296.822997                    
V  7   3165.339209   9869.788050 -30004.478616      0.040502                    
P  8  23522.816775   4012.583557  11998.246732    -50.193785                    
V  8  12092.945481   9309.831216 -26452.591884     -0.014950                    
P  9   6487.881940 -14020.315243 -21677.645472   -359.259903                    
V  9  23766.340818  13591.714024  -1714.461764      0.009473                    
P 10   -619.540097  16566.805103  20815.512319   -281.540477                    
V 10 -23340.379694  11864.840761 -10490.856192     -0.092873                    
P 11 -12488.342423 -13281.177558 -19326.017707      1.522886                    
V 11   3189.658163 -24348.483283  14658.894094     -0.335541                    
P 12 -24390.861185  10191.719006   1373.798097   -148.647649                    
V 12    781.264345  -3233.413821  32015.243918     -0.056239                    
P 13 -22601.381908 -12401.876768   6566.953081    237.716719                    
V 13  -5131.442330  -7178.699338 -30345.218302      0.059384                    
P 14   1752.820316 -16961.338019  20345.092330    -63.535019                    
V 14  23642.590475 -10575.512973 -10911.404414     -0.057602                    
P 15 -23790.993804  -1100.925238  11680.378772    -95.176971                    
V 15 -12813.838352  -9075.399848 -25732.055992      0.028444                    
P 16  21306.479046   2738.522593 -16175.576865   -448.526894                    
V 16 -17656.296855   9180.303450 -21600.597628     -0.057006                    
P 17  -7211.810840 -19148.544338  17354.151204    554.824459                    
V 17  18116.585402  10996.590621  20212.548810      0.051101                    
P 18  -5824.003595  24900.392439  -6980.904234    269.949980                    
V 18  -2101.089308  -8971.966251 -30357.030544     -0.069845                    
P 19 -14781.081237 -19672.043701   9962.267847     99.208173                    
V 19  11476.150816   6307.374854  28559.102098      0.049810                    
P 20 -16342.674643  -5846.355484 -20046.909061    517.395372                    
V 20  19454.113843 -16651.853774 -11265.264391     -0.001784                    
P 21  15455.295392  -2075.930613  22160.713641    155.028155                    
V 21   1887.371293  26496.233939   1800.089488      0.008868                    
P 22  23503.352477  -8581.238698   8754.029369   -428.861499                    
V 22  -7081.370957   9042.004625  28645.985529      0.089266                    
P 23 -12343.853574  18628.290423  14269.520947     16.185717                    
V 23 -16712.880227   7414.286431 -24198.383179     -0.039898                    
P 24 -14596.898344   8051.590255  20307.929647    276.604927                    
V 24  -2712.258728 -26521.459240   8856.979577      0.008852                    
P 25 -18021.621352  17239.755565  -8989.202741    263.744295                    
V 25 -11077.346026   2963.679383  29045.877068      0.056438                    
P 26  11031.535957  11517.212679 -21337.361933    169.970586                    
V 26 -22798.731615  14422.816383  -3710.628658      0.034942                    
P 27  23570.897776  12459.231962   2248.335491     38.271429                    
V 27   1533.776760   3355.731317 -31619.505693      0.256348                    
P 28  -6184.958998 -13940.974342  22275.637651    432.181360                    
V 28  24712.184007 -10839.091801    298.444156     -0.078994                    
P 29 -10645.682166  10462.061505 -22015.627305   -461.023945                    
V 29 -22528.870109 -16261.913984   3116.975463     -0.049394                    
P 30   -500.194006 -26340.701679   2157.061025   -503.288191                    
V 30   3901.610223  -2529.405741 -31189.063276     -0.027713                    
P 31   7515.514086  22257.237425 -12039.181264   -157.626289                    
V 31  -3502.783694  15147.934707  26540.667372     -0.018492                    
P 32  12145.965124  18972.714899  14337.228318    -43.003372                    
V 32 -16456.178792  -7418.357101  23772.656262     -0.057638                    
EOF
